{
  "type": "FeatureCollection",
  "features": [
    {
      "type": "Feature",
      "properties": {
        "norad_id": 66662,
        "name": "2025-274N",
        "group": "last-30-days",
        "lat": 44.34158983235714,
        "lon": -93.46993911033914,
        "alt_km": 589.748945878011,
        "timestamp": "2025-12-12T22:42:11.307199+00:00",
        "meta_object_name": "2025-274N",
        "meta_object_id": "2025-274N",
        "meta_epoch": "2025-12-12T06:25:09.981696",
        "meta_mean_motion": 14.93144928,
        "meta_eccentricity": 0.0013832,
        "meta_inclination": 97.7384,
        "meta_ra_of_asc_node": 273.4993,
        "meta_arg_of_pericenter": 283.3595,
        "meta_mean_anomaly": 76.6083,
        "meta_ephemeris_type": 0,
        "meta_classification_type": "U",
        "meta_norad_cat_id": 66662,
        "meta_element_set_no": 999,
        "meta_rev_at_epoch": 233,
        "meta_bstar": 0.00042714878,
        "meta_mean_motion_dot": 4.408e-05,
        "meta_mean_motion_ddot": 0,
        "tle_line1": "1 66662U 25274N   25346.26747664  .00004408  00000+0  42715-3 0  9995",
        "tle_line2": "2 66662  97.7384 273.4993 0013832 283.3595  76.6083 14.93144928  2338"
      },
      "geometry": {
        "type": "Point",
        "coordinates": [
          -93.46993911033914,
          44.34158983235714
        ]
      }
    },
    {
      "type": "Feature",
      "properties": {
        "norad_id": 66663,
        "name": "KSLV-II R/B",
        "group": "last-30-days",
        "lat": -68.52822768824835,
        "lon": -65.4824884041375,
        "alt_km": 551.1222143689465,
        "timestamp": "2025-12-12T22:42:11.307208+00:00",
        "meta_object_name": "KSLV-II R/B",
        "meta_object_id": "2025-274P",
        "meta_epoch": "2025-12-11T19:44:45.557664",
        "meta_mean_motion": 14.97283545,
        "meta_eccentricity": 0.00514717,
        "meta_inclination": 97.7408,
        "meta_ra_of_asc_node": 273.1735,
        "meta_arg_of_pericenter": 322.7433,
        "meta_mean_anomaly": 37.0222,
        "meta_ephemeris_type": 0,
        "meta_classification_type": "U",
        "meta_norad_cat_id": 66663,
        "meta_element_set_no": 999,
        "meta_rev_at_epoch": 227,
        "meta_bstar": 0.00068440169,
        "meta_mean_motion_dot": 8.093e-05,
        "meta_mean_motion_ddot": 0,
        "tle_line1": "1 66663U 25274P   25345.82274951  .00008093  00000+0  68440-3 0  9998",
        "tle_line2": "2 66663  97.7408 273.1735 0051471 322.7433  37.0222 14.97283545  2279"
      },
      "geometry": {
        "type": "Point",
        "coordinates": [
          -65.4824884041375,
          -68.52822768824835
        ]
      }
    },
    {
      "type": "Feature",
      "properties": {
        "norad_id": 66664,
        "name": "SOYUZ-MS 28",
        "group": "last-30-days",
        "lat": 50.506459566478185,
        "lon": -112.55945959123375,
        "alt_km": 412.7974157167073,
        "timestamp": "2025-12-12T22:42:11.307218+00:00",
        "meta_object_name": "SOYUZ-MS 28",
        "meta_object_id": "2025-275A",
        "meta_epoch": "2025-12-12T03:41:57.165504",
        "meta_mean_motion": 15.49529746,
        "meta_eccentricity": 0.00032837,
        "meta_inclination": 51.6307,
        "meta_ra_of_asc_node": 145.3792,
        "meta_arg_of_pericenter": 237.6977,
        "meta_mean_anomaly": 122.3694,
        "meta_ephemeris_type": 0,
        "meta_classification_type": "U",
        "meta_norad_cat_id": 66664,
        "meta_element_set_no": 999,
        "meta_rev_at_epoch": 128,
        "meta_bstar": 0.00026408062,
        "meta_mean_motion_dot": 0.00014398,
        "meta_mean_motion_ddot": 0,
        "tle_line1": "1 66664U 25275A   25346.15413386  .00014398  00000+0  26408-3 0  9997",
        "tle_line2": "2 66664  51.6307 145.3792 0003283 237.6977 122.3694 15.49529746  1280"
      },
      "geometry": {
        "type": "Point",
        "coordinates": [
          -112.55945959123375,
          50.506459566478185
        ]
      }
    },
    {
      "type": "Feature",
      "properties": {
        "norad_id": 66791,
        "name": "STARLINK-35867",
        "group": "last-30-days",
        "lat": 33.34187025620138,
        "lon": 25.934974137068934,
        "alt_km": 303.1563091288417,
        "timestamp": "2025-12-12T22:42:11.307230+00:00",
        "meta_object_name": "STARLINK-35867",
        "meta_object_id": "2025-278A",
        "meta_epoch": "2025-12-12T04:03:56.058048",
        "meta_mean_motion": 15.88704003,
        "meta_eccentricity": 0.00033066,
        "meta_inclination": 42.9975,
        "meta_ra_of_asc_node": 255.6619,
        "meta_arg_of_pericenter": 240.299,
        "meta_mean_anomaly": 119.7556,
        "meta_ephemeris_type": 0,
        "meta_classification_type": "U",
        "meta_norad_cat_id": 66791,
        "meta_element_set_no": 999,
        "meta_rev_at_epoch": 174,
        "meta_bstar": -0.00117499,
        "meta_mean_motion_dot": -0.0033058,
        "meta_mean_motion_ddot": 0,
        "tle_line1": "1 66791U 25278A   25346.16939882 -.00330580  00000+0 -11750-2 0  9995",
        "tle_line2": "2 66791  42.9975 255.6619 0003306 240.2990 119.7556 15.88704003  1741"
      },
      "geometry": {
        "type": "Point",
        "coordinates": [
          25.934974137068934,
          33.34187025620138
        ]
      }
    },
    {
      "type": "Feature",
      "properties": {
        "norad_id": 66792,
        "name": "STARLINK-35990",
        "group": "last-30-days",
        "lat": 32.65569925709014,
        "lon": 27.392220073632423,
        "alt_km": 303.4579674393817,
        "timestamp": "2025-12-12T22:42:11.307240+00:00",
        "meta_object_name": "STARLINK-35990",
        "meta_object_id": "2025-278B",
        "meta_epoch": "2025-12-12T05:34:05.793600",
        "meta_mean_motion": 15.88582284,
        "meta_eccentricity": 0.0002004,
        "meta_inclination": 42.9976,
        "meta_ra_of_asc_node": 255.2707,
        "meta_arg_of_pericenter": 327.9845,
        "meta_mean_anomaly": 32.0908,
        "meta_ephemeris_type": 0,
        "meta_classification_type": "U",
        "meta_norad_cat_id": 66792,
        "meta_element_set_no": 999,
        "meta_rev_at_epoch": 175,
        "meta_bstar": -0.0010261616,
        "meta_mean_motion_dot": -0.00288226,
        "meta_mean_motion_ddot": 0,
        "tle_line1": "1 66792U 25278B   25346.23201150 -.00288226  00000+0 -10262-2 0  9990",
        "tle_line2": "2 66792  42.9976 255.2707 0002004 327.9845  32.0908 15.88582284  1757"
      },
      "geometry": {
        "type": "Point",
        "coordinates": [
          27.392220073632423,
          32.65569925709014
        ]
      }
    },
    {
      "type": "Feature",
      "properties": {
        "norad_id": 66793,
        "name": "STARLINK-36051",
        "group": "last-30-days",
        "lat": 30.047377066497134,
        "lon": 32.464253582602694,
        "alt_km": 304.0543010866686,
        "timestamp": "2025-12-12T22:42:11.307256+00:00",
        "meta_object_name": "STARLINK-36051",
        "meta_object_id": "2025-278C",
        "meta_epoch": "2025-12-12T05:32:48.038784",
        "meta_mean_motion": 15.88598774,
        "meta_eccentricity": 0.00017286,
        "meta_inclination": 42.998,
        "meta_ra_of_asc_node": 255.2642,
        "meta_arg_of_pericenter": 321.7089,
        "meta_mean_anomaly": 38.3663,
        "meta_ephemeris_type": 0,
        "meta_classification_type": "U",
        "meta_norad_cat_id": 66793,
        "meta_element_set_no": 999,
        "meta_rev_at_epoch": 175,
        "meta_bstar": -0.001274683,
        "meta_mean_motion_dot": -0.003555,
        "meta_mean_motion_ddot": 0,
        "tle_line1": "1 66793U 25278C   25346.23111156 -.00355500  00000+0 -12747-2 0  9997",
        "tle_line2": "2 66793  42.9980 255.2642 0001728 321.7089  38.3663 15.88598774  1753"
      },
      "geometry": {
        "type": "Point",
        "coordinates": [
          32.464253582602694,
          30.047377066497134
        ]
      }
    },
    {
      "type": "Feature",
      "properties": {
        "norad_id": 66794,
        "name": "STARLINK-36062",
        "group": "last-30-days",
        "lat": 31.214370026030476,
        "lon": 30.276938115584855,
        "alt_km": 303.83205886703126,
        "timestamp": "2025-12-12T22:42:11.307266+00:00",
        "meta_object_name": "STARLINK-36062",
        "meta_object_id": "2025-278D",
        "meta_epoch": "2025-12-12T05:33:21.506688",
        "meta_mean_motion": 15.88581442,
        "meta_eccentricity": 0.00018018,
        "meta_inclination": 42.9974,
        "meta_ra_of_asc_node": 255.2672,
        "meta_arg_of_pericenter": 323.3757,
        "meta_mean_anomaly": 36.6993,
        "meta_ephemeris_type": 0,
        "meta_classification_type": "U",
        "meta_norad_cat_id": 66794,
        "meta_element_set_no": 999,
        "meta_rev_at_epoch": 175,
        "meta_bstar": -0.0011905718,
        "meta_mean_motion_dot": -0.00332638,
        "meta_mean_motion_ddot": 0,
        "tle_line1": "1 66794U 25278D   25346.23149892 -.00332638  00000+0 -11906-2 0  9999",
        "tle_line2": "2 66794  42.9974 255.2672 0001801 323.3757  36.6993 15.88581442  1753"
      },
      "geometry": {
        "type": "Point",
        "coordinates": [
          30.276938115584855,
          31.214370026030476
        ]
      }
    }
  ]
}